STARLINK-4800           
1 53854U 22114AN  22271.58334491 -.01292189  00000+0 -92016-2 0  9999
2 53854  53.2175 211.5585 0001255 323.5641  70.3403 15.75729956  1301
STARLINK-4703           
1 53855U 22114AP  22271.58334491 -.01192576  00000+0 -86351-2 0  9994
2 53855  53.2176 211.5636 0000591  93.0319 298.2120 15.75584400  1303
STARLINK-4795           
1 53856U 22114AQ  22271.58334491 -.01308847  00000+0 -92947-2 0  9993
2 53856  53.2173 211.5524 0000834  70.6254 325.9560 15.75829237  1302
STARLINK-4809           
1 53857U 22114AR  22271.58334491 -.01304906  00000+0 -93222-2 0  9993
2 53857  53.2174 211.5610 0000681  33.7331 358.5548 15.75687924  1309
STARLINK-4798           
1 53858U 22114AS  22271.58334491 -.01304603  00000+0 -92914-2 0  9995
2 53858  53.2175 211.5573 0000790  37.3199 357.1221 15.75755827  1303
STARLINK-4790           
1 53859U 22114AT  22271.58334491 -.01310030  00000+0 -93454-2 0  9997
2 53859  53.2174 211.5587 0001106 314.3280  79.0325 15.75726692  1302
STARLINK-4799           
1 53860U 22114AU  22271.58334491 -.01311343  00000+0 -93199-2 0  9993
2 53860  53.2173 211.5537 0001025  38.5630 357.4787 15.75814378  1306
STARLINK-4781           
1 53861U 22114AV  22271.58334491 -.01305371  00000+0 -92894-2 0  9999
2 53861  53.2173 211.5556 0000966  53.6498 341.3281 15.75773896  1301
STARLINK-4792           
1 53862U 22114AW  22271.58334491 -.01312457  00000+0 -93137-2 0  9994
2 53862  53.2174 211.5518 0001019  24.9390  12.1689 15.75850841  1304
STARLINK-4788           
1 53863U 22114AX  22271.58334491 -.01312281  00000+0 -93334-2 0  9999
2 53863  53.2173 211.5544 0001261  29.5607   5.9459 15.75797464  1300
STARLINK-4779           
1 53864U 22114AY  22271.58334491 -.01296124  00000+0 -91760-2 0  9998
2 53864  53.2174 211.5496 0001155  21.8505  16.3407 15.75870273  1301
STARLINK-4785           
1 53865U 22114AZ  22271.58334491 -.01306176  00000+0 -92595-2 0  9995
2 53865  53.2174 211.5502 0000953  38.4062 359.2435 15.75862281  1307
STARLINK-4762           
1 53866U 22114BA  22271.58334491 -.01298055  00000+0 -91701-2 0  9990
2 53866  53.2174 211.5464 0000851  24.8375  14.9503 15.75925047  1309
STARLINK-4793           
1 53867U 22114BB  22271.58334491 -.01309739  00000+0 -92730-2 0  9996
2 53867  53.2173 211.5479 0000770  45.6430 353.0728 15.75899696  1304
STARLINK-4789           
1 53868U 22114BC  22271.58334491 -.00625581  00000+0 -43450-2 0  9997
2 53868  53.2181 211.5463 0001002  98.2460 302.3192 15.75458142  1302
STARLINK-4810           
1 53869U 22114BD  22271.58334491 -.01307325  00000+0 -92456-2 0  9992
2 53869  53.2174 211.5471 0001199  26.0641  13.1818 15.75915929  1304
STARLINK-4732           
1 53870U 22114BE  22271.58334491 -.01313076  00000+0 -92678-2 0  9990
2 53870  53.2174 211.5445 0001404 311.1320  89.7152 15.75970323  1307
STARLINK-4740           
1 53871U 22114BF  22271.58334491 -.01301086  00000+0 -91726-2 0  9992
2 53871  53.2174 211.5428 0000842  29.6633  11.7257 15.75977616  1305
FALCON 9 DEB            
1 53872U 22114BG  22271.56168331  .00948114  11525-4  88238-3 0  9999
2 53872  53.2175 210.7409 0058321  82.3003 278.4650 16.07730266  2639
FALCON 9 DEB            
1 53873U 22114BH  22271.55902393  .00892764  11531-4  83934-3 0  9997
2 53873  53.2137 210.7178 0053931  83.6278 277.0895 16.08108409  2636
FALCON 9 DEB            
1 53874U 22114BJ  22271.55222828  .00768923  11564-4  67309-3 0  9999
2 53874  53.2143 210.6646 0051990  77.7190 282.9660 16.09340911  2635
FALCON 9 DEB            
1 53875U 22114BK  22271.30260647  .00927459  11565-4  80597-3 0  9990
2 53875  53.2158 211.9529 0052958  78.7457 281.9524 16.09321113  2594
CHUANGXIN 16B (CX-16B)  
1 53876U 22102B   22271.22290400  .00003237  00000+0  30059-3 0  9993
2 53876  28.9977 136.5758 0004810 262.9883  97.0166 14.91793072  1260
2022-115A               
1 53877U 22115A   22271.53963735 -.00048342  00000+0 -17873-1 0  9995
2 53877  98.4954 270.1235 0002660  87.6905 272.4924 14.32723561  1094
CZ-2D R/B               
1 53878U 22115B   22271.51286359  .00000712  00000+0  12030-3 0  9993
2 53878  98.5448 270.5747 0124571  19.6124 340.9807 14.67929177  1113
SOYUZ-MS 22             
1 53879U 22116A   22270.52893583  .00010365  00000+0  18723-3 0  9998
2 53879  51.6443 189.5440 0002401 301.1062 224.7991 15.50321764361051
2022-118A               
1 53884U 22118A   22271.56391563  .00004097  00000+0  17781-3 0  9990
2 53884  97.5201 278.0744 0013507 246.9116 211.3429 15.22836187   556
2022-118B               
1 53885U 22118B   22271.57252135  .00004773  00000+0  20292-3 0  9995
2 53885  97.5198 278.0869 0010765 255.4687 258.2041 15.23478853   543
2022-118C               
1 53942U 22118C   22271.60350781  .00048529  25296-5  60100-3 0  9998
2 53942  97.5253 278.0632 0275928 352.4255   7.2847 15.26167659   559
2022-120A               
1 53943U 22120A   22271.48064057 -.00000038  00000+0  00000+0 0  9999
2 53943  34.9983 173.3973 0008917 286.3346 249.6179 15.24515248   298
2022-120B               
1 53944U 22120B   22271.21144568 -.00000038  00000+0  00000+0 0  9997
2 53944  34.9958 175.0969 0010384 289.3863 207.0666 15.24579903   256
2022-120C               
1 53945U 22120C   22271.21169718 -.00000038  00000+0  00000+0 0  9992
2 53945  34.9950 175.0827 0010103 284.9753 211.4043 15.24331459   227
2022-120D               
1 53946U 22120D   22271.21187767 -.00000038  00000+0  00000+0 0  9997
2 53946  34.9970 175.0961 0008048 277.9592 218.5436 15.24179864   210
2022-120E               
1 53947U 22120E   22271.48025977 -.00000038  00000+0  00000+0 0  9991
2 53947  34.9957 173.4036 0009318 291.5805 244.2287 15.24800160   299
2022-121A               
1 53948U 22121A   22271.51886421 -.00000068  00000+0  00000+0 0  9999
2 53948  97.4540 292.1377 0011241 260.7170 269.1895 15.17683991   238
2022-121B               
1 53949U 22121B   22271.51860541 -.00000067  00000+0  00000+0 0  9994
2 53949  97.4521 292.1365 0010023 266.5410 263.1764 15.17911064   237
2022-121C               
1 53950U 22121C   22271.51835844 -.00000068  00000+0  00000+0 0  9995
2 53950  97.4548 292.1372 0011688 273.5080 256.3392 15.18179933   238
NOAA 1 [-]              
1 04793U 70106A   22271.15686406 -.00000022  00000+0  13359-3 0  9995
2 04793 101.5465 332.3408 0031994 122.3742 293.8953 12.54007701370463
NOAA 2 (ITOS-D) [-]     
1 06235U 72082A   22271.53775566 -.00000045  00000+0  94209-5 0  9991
2 06235 101.9646 254.4505 0003676 237.5106 234.3425 12.53151803284888
NOAA 3 [-]              
1 06920U 73086A   22271.47529571 -.00000043  00000+0  23859-4 0  9993
2 06920 102.2187 253.3524 0006730  98.7789  13.8319 12.40348711213561
NOAA 4 [-]              
1 07529U 74089A   22271.51588462 -.00000040  00000+0  37311-4 0  9997
2 07529 101.9251 251.4934 0008638 268.1824 201.2209 12.53160511189456
NOAA 5 [-]              
1 09057U 76077A   22271.53979969 -.00000040  00000+0  37040-4 0  9991
2 09057 102.1109 238.4701 0009806 311.7620 162.3261 12.37774369 86492
TIROS N [-]             
1 11060U 78096A   22271.54929989  .00000135  00000+0  86054-4 0  9992
2 11060  98.6248 322.5088 0010263 201.0090 159.0665 14.18416264486220
NOAA 6 [-]              
1 11416U 79057A   22271.47593478  .00000171  00000+0  77483-4 0  9993
2 11416  98.6648 282.4955 0009574 319.8516  40.1960 14.33802381256285
NOAA 7 [-]              
1 12553U 81059A   22271.58034571  .00000035  00000+0  39785-4 0  9999
2 12553  98.9888 317.2273 0011556 177.6995 182.4234 14.17344969132407
NOAA 8 [-]              
1 13923U 83022A   22271.50703491  .00000100  00000+0  57214-4 0  9999
2 13923  98.6956 261.6887 0013951 268.3993  91.5591 14.28834258 57120
NOAA 9 [-]              
1 15427U 84123A   22271.53885677  .00000085  00000+0  66216-4 0  9997
2 15427  99.0576 245.5965 0013986 231.3536 236.1973 14.16225506951203
NOAA 10 [-]             
1 16969U 86073A   22271.51644715  .00000092  00000+0  54445-4 0  9998
2 16969  98.5780 255.8182 0012580  16.0699  95.0745 14.28223714875541
NOAA 11 [-]             
1 19531U 88089A   22271.48727226  .00000035  00000+0  38725-4 0  9990
2 19531  98.4346 254.9529 0010095 239.1066 120.9116 14.15323503755399
NOAA 12 [-]             
1 21263U 91032A   22271.49609896  .00000065  00000+0  45112-4 0  9991
2 21263  98.5202 268.4547 0014428  41.6851 318.5426 14.26012284631416
NOAA 13 [-]             
1 22739U 93050A   22271.48754596  .00000082  00000+0  66047-4 0  9998
2 22739  98.5163 246.2020 0010480  52.4267 307.7856 14.12863516501607
NOAA 14 [-]             
1 23455U 94089A   22271.49770964  .00000020  00000+0  32060-4 0  9995
2 23455  98.4435 292.6085 0010075  34.4767 325.7059 14.14210135431270
NOAA 15 [B]             
1 25338U 98030A   22271.55259089  .00000124  00000+0  69868-4 0  9995
2 25338  98.6377 299.7086 0010292   3.5600 356.5651 14.26174689267714
NOAA 16 [-]             
1 26536U 00055A   22271.40284594  .00000066  00000+0  57901-4 0  9999
2 26536  98.6257 326.7017 0009727 227.4205 132.6148 14.13345269431892
NOAA 17 [-]             
1 27453U 02032A   22271.56926981  .00000098  00000+0  60444-4 0  9996
2 27453  98.6795 215.6607 0011433 337.6971  22.3710 14.25144178 53541
NOAA 18 [B]             
1 28654U 05018A   22271.53656729  .00000164  00000+0  11246-3 0  9993
2 28654  98.9407 341.8511 0014805  43.8038 316.4305 14.12780943894531
NOAA 19 [+]             
1 33591U 09005A   22271.54951769  .00000164  00000+0  11376-3 0  9996
2 33591  99.1396 307.8127 0012963 257.5059 102.4661 14.12614158702745
SUOMI NPP [+]           
1 37849U 11061A   22271.54066226  .00000086  00000+0  61420-4 0  9995
2 37849  98.7377 208.6837 0001117  78.5314  31.7521 14.19546004565825
NOAA 20 [+]             
1 43013U 17073A   22271.55358814  .00000057  00000+0  47682-4 0  9994
2 43013  98.7216 208.5153 0001588  96.9572 263.1784 14.19545447251856
